{
  "type": "FeatureCollection",
  "features": [
    {
      "type": "Feature",
      "properties": {
        "norad_id": 26766,
        "name": "INTELSAT 10 (IS-10)",
        "group": "intelsat",
        "lat": -2.046410782890966,
        "lon": -105.50149030017754,
        "alt_km": 36098.43650876353,
        "timestamp": "2025-12-27T05:29:38.861572+00:00",
        "meta_object_name": "INTELSAT 10 (IS-10)",
        "meta_object_id": "2001-019A",
        "meta_epoch": "2025-12-26T18:36:04.420224",
        "meta_mean_motion": 0.99071767,
        "meta_eccentricity": 0.00080732,
        "meta_inclination": 8.6609,
        "meta_ra_of_asc_node": 61.0141,
        "meta_arg_of_pericenter": 230.0856,
        "meta_mean_anomaly": 161.7254,
        "meta_ephemeris_type": 0,
        "meta_classification_type": "U",
        "meta_norad_cat_id": 26766,
        "meta_element_set_no": 999,
        "meta_rev_at_epoch": 4387,
        "meta_bstar": 0,
        "meta_mean_motion_dot": 5.8e-07,
        "meta_mean_motion_ddot": 0,
        "tle_line1": "1 26766U 01019A   25360.77505116  .00000058  00000+0  00000+0 0  9997",
        "tle_line2": "2 26766   8.6609  61.0141 0008073 230.0856 161.7254  0.99071767 43877"
      },
      "geometry": {
        "type": "Point",
        "coordinates": [
          -105.50149030017754,
          -2.046410782890966
        ]
      }
    },
    {
      "type": "Feature",
      "properties": {
        "norad_id": 26900,
        "name": "INTELSAT 902 (IS-902)",
        "group": "intelsat",
        "lat": 4.623607761802484,
        "lon": 127.96480441135164,
        "alt_km": 35800.66211769759,
        "timestamp": "2025-12-27T05:29:38.861596+00:00",
        "meta_object_name": "INTELSAT 902 (IS-902)",
        "meta_object_id": "2001-039A",
        "meta_epoch": "2025-12-15T13:09:02.081664",
        "meta_mean_motion": 1.0027087,
        "meta_eccentricity": 0.00045028,
        "meta_inclination": 5.6536,
        "meta_ra_of_asc_node": 74.0372,
        "meta_arg_of_pericenter": 189.6359,
        "meta_mean_anomaly": 327.9329,
        "meta_ephemeris_type": 0,
        "meta_classification_type": "U",
        "meta_norad_cat_id": 26900,
        "meta_element_set_no": 999,
        "meta_rev_at_epoch": 8885,
        "meta_bstar": 0,
        "meta_mean_motion_dot": -2.65e-06,
        "meta_mean_motion_ddot": 0,
        "tle_line1": "1 26900U 01039A   25349.54794076 -.00000265  00000+0  00000+0 0  9997",
        "tle_line2": "2 26900   5.6536  74.0372 0004502 189.6359 327.9329  1.00270870 88858"
      },
      "geometry": {
        "type": "Point",
        "coordinates": [
          127.96480441135164,
          4.623607761802484
        ]
      }
    },
    {
      "type": "Feature",
      "properties": {
        "norad_id": 27380,
        "name": "INTELSAT 904 (IS-904)",
        "group": "intelsat",
        "lat": 6.2993901741542535,
        "lon": 146.8017282510818,
        "alt_km": 35793.850294715674,
        "timestamp": "2025-12-27T05:29:38.861614+00:00",
        "meta_object_name": "INTELSAT 904 (IS-904)",
        "meta_object_id": "2002-007A",
        "meta_epoch": "2025-12-26T11:10:18.842304",
        "meta_mean_motion": 1.00272441,
        "meta_eccentricity": 0.0002084,
        "meta_inclination": 6.4869,
        "meta_ra_of_asc_node": 71.2729,
        "meta_arg_of_pericenter": 247.9541,
        "meta_mean_anomaly": 272.0829,
        "meta_ephemeris_type": 0,
        "meta_classification_type": "U",
        "meta_norad_cat_id": 27380,
        "meta_element_set_no": 999,
        "meta_rev_at_epoch": 5003,
        "meta_bstar": 0,
        "meta_mean_motion_dot": -2.06e-06,
        "meta_mean_motion_ddot": 0,
        "tle_line1": "1 27380U 02007A   25360.46549586 -.00000206  00000+0  00000+0 0  9999",
        "tle_line2": "2 27380   6.4869  71.2729 0002084 247.9541 272.0829  1.00272441 50038"
      },
      "geometry": {
        "type": "Point",
        "coordinates": [
          146.8017282510818,
          6.2993901741542535
        ]
      }
    },
    {
      "type": "Feature",
      "properties": {
        "norad_id": 27426,
        "name": "DIRECTV 5 (TEMPO 1)",
        "group": "intelsat",
        "lat": -0.6956689054462842,
        "lon": 68.29908324394125,
        "alt_km": 35798.12557480023,
        "timestamp": "2025-12-27T05:29:38.861627+00:00",
        "meta_object_name": "DIRECTV 5 (TEMPO 1)",
        "meta_object_id": "2002-023A",
        "meta_epoch": "2025-12-26T13:17:03.638976",
        "meta_mean_motion": 1.00271439,
        "meta_eccentricity": 0.0003446,
        "meta_inclination": 4.4354,
        "meta_ra_of_asc_node": 77.4895,
        "meta_arg_of_pericenter": 206.4307,
        "meta_mean_anomaly": 260.5228,
        "meta_ephemeris_type": 0,
        "meta_classification_type": "U",
        "meta_norad_cat_id": 27426,
        "meta_element_set_no": 999,
        "meta_rev_at_epoch": 8639,
        "meta_bstar": 0,
        "meta_mean_motion_dot": -3.7e-07,
        "meta_mean_motion_ddot": 0,
        "tle_line1": "1 27426U 02023A   25360.55351434 -.00000037  00000+0  00000+0 0  9993",
        "tle_line2": "2 27426   4.4354  77.4895 0003446 206.4307 260.5228  1.00271439 86390"
      },
      "geometry": {
        "type": "Point",
        "coordinates": [
          68.29908324394125,
          -0.6956689054462842
        ]
      }
    },
    {
      "type": "Feature",
      "properties": {
        "norad_id": 27438,
        "name": "INTELSAT 905 (IS-905)",
        "group": "intelsat",
        "lat": -3.2124196787491615,
        "lon": 41.38417752387109,
        "alt_km": 35791.98015710501,
        "timestamp": "2025-12-27T05:29:38.861639+00:00",
        "meta_object_name": "INTELSAT 905 (IS-905)",
        "meta_object_id": "2002-027A",
        "meta_epoch": "2025-12-23T05:41:27.377952",
        "meta_mean_motion": 1.00273243,
        "meta_eccentricity": 0.00027491,
        "meta_inclination": 6.3102,
        "meta_ra_of_asc_node": 71.9349,
        "meta_arg_of_pericenter": 206.5226,
        "meta_mean_anomaly": 121.7385,
        "meta_ephemeris_type": 0,
        "meta_classification_type": "U",
        "meta_norad_cat_id": 27438,
        "meta_element_set_no": 999,
        "meta_rev_at_epoch": 4959,
        "meta_bstar": 0,
        "meta_mean_motion_dot": 1.12e-06,
        "meta_mean_motion_ddot": 0,
        "tle_line1": "1 27438U 02027A   25357.23712243  .00000112  00000+0  00000+0 0  9993",
        "tle_line2": "2 27438   6.3102  71.9349 0002749 206.5226 121.7385  1.00273243 49592"
      },
      "geometry": {
        "type": "Point",
        "coordinates": [
          41.38417752387109,
          -3.2124196787491615
        ]
      }
    },
    {
      "type": "Feature",
      "properties": {
        "norad_id": 27445,
        "name": "GALAXY 3C (G-3C)",
        "group": "intelsat",
        "lat": 0.19824808742169894,
        "lon": 83.49561606789315,
        "alt_km": 35785.764375886014,
        "timestamp": "2025-12-27T05:29:38.861652+00:00",
        "meta_object_name": "GALAXY 3C (G-3C)",
        "meta_object_id": "2002-030A",
        "meta_epoch": "2025-12-26T06:43:38.713152",
        "meta_mean_motion": 1.00271267,
        "meta_eccentricity": 9.7e-05,
        "meta_inclination": 3.2955,
        "meta_ra_of_asc_node": 80.3601,
        "meta_arg_of_pericenter": 86.5436,
        "meta_mean_anomaly": 294.1805,
        "meta_ephemeris_type": 0,
        "meta_classification_type": "U",
        "meta_norad_cat_id": 27445,
        "meta_element_set_no": 999,
        "meta_rev_at_epoch": 4476,
        "meta_bstar": 0,
        "meta_mean_motion_dot": -1.32e-06,
        "meta_mean_motion_ddot": 0,
        "tle_line1": "1 27445U 02030A   25360.28030918 -.00000132  00000+0  00000+0 0  9999",
        "tle_line2": "2 27445   3.2955  80.3601 0000970  86.5436 294.1805  1.00271267 44760"
      },
      "geometry": {
        "type": "Point",
        "coordinates": [
          83.49561606789315,
          0.19824808742169894
        ]
      }
    },
    {
      "type": "Feature",
      "properties": {
        "norad_id": 27513,
        "name": "INTELSAT 906 (IS-906)",
        "group": "intelsat",
        "lat": 1.157485808721016,
        "lon": -117.48836392573655,
        "alt_km": 35764.88026709188,
        "timestamp": "2025-12-27T05:29:38.861664+00:00",
        "meta_object_name": "INTELSAT 906 (IS-906)",
        "meta_object_id": "2002-041A",
        "meta_epoch": "2025-12-26T18:28:14.405088",
        "meta_mean_motion": 1.00271072,
        "meta_eccentricity": 0.0006168,
        "meta_inclination": 5.3657,
        "meta_ra_of_asc_node": 75.0649,
        "meta_arg_of_pericenter": 203.0067,
        "meta_mean_anomaly": 158.6263,
        "meta_ephemeris_type": 0,
        "meta_classification_type": "U",
        "meta_norad_cat_id": 27513,
        "meta_element_set_no": 999,
        "meta_rev_at_epoch": 8530,
        "meta_bstar": 0,
        "meta_mean_motion_dot": 3.3e-07,
        "meta_mean_motion_ddot": 0,
        "tle_line1": "1 27513U 02041A   25360.76961117  .00000033  00000+0  00000+0 0  9993",
        "tle_line2": "2 27513   5.3657  75.0649 0006168 203.0067 158.6263  1.00271072 85303"
      },
      "geometry": {
        "type": "Point",
        "coordinates": [
          -117.48836392573655,
          1.157485808721016
        ]
      }
    }
  ]
}